API VERSION: 1.2
API SOURCE: NASA/JPL Horizons API



*******************************************************************************
Ephemeris / API_USER Tue Apr 14 11:00:36 2026 Pasadena, USA      / Horizons
*******************************************************************************
Target body name: Artemis II (spacecraft) (-1024) {source: Artemis_II_merged}
Center body name: Sun (10)                        {source: DE441}
Center-site name: BODY CENTER
*******************************************************************************
Start time      : A.D. 2026-Apr-02 01:58:32.5000 TDB
Stop  time      : A.D. 2026-Apr-10 23:54:22.8576 TDB
Step-size       : 60 minutes
*******************************************************************************
Center geodetic : 0.0, 0.0, 0.0                   {E-lon(deg),Lat(deg),Alt(km)}
Center cylindric: 0.0, 0.0, 0.0                   {E-lon(deg),Dxy(km),Dz(km)}
Center radii    : 695700.0, 695700.0, 695700.0 km {Equator_a, b, pole_c}
Output units    : KM-S
Calendar mode   : Mixed Julian/Gregorian
Output type     : GEOMETRIC cartesian states
Output format   : 1 (position only)
Reference frame : Ecliptic of J2000.0
*******************************************************************************
JDTDB
   X     Y     Z
*******************************************************************************
$$SOE
2461132.582320602 = A.D. 2026-Apr-02 01:58:32.5000 TDB 
 X =-1.462758448768917E+08 Y =-3.104817012490092E+07 Z = 1.630472660711035E+03
2461132.623987269 = A.D. 2026-Apr-02 02:58:32.5000 TDB 
 X =-1.462598737207848E+08 Y =-3.116593881129624E+07 Z = 5.559834970012307E+02
2461132.665653935 = A.D. 2026-Apr-02 03:58:32.5000 TDB 
 X =-1.462412276666858E+08 Y =-3.128142157126598E+07 Z =-3.211717062499374E+02
2461132.707320602 = A.D. 2026-Apr-02 04:58:32.5000 TDB 
 X =-1.462210294182185E+08 Y =-3.139518499975047E+07 Z =-1.048699065981433E+03
2461132.748987269 = A.D. 2026-Apr-02 05:58:32.5000 TDB 
 X =-1.461997925661612E+08 Y =-3.150755030140254E+07 Z =-1.655277036217973E+03
2461132.790653935 = A.D. 2026-Apr-02 06:58:32.5000 TDB 
 X =-1.461777807860853E+08 Y =-3.161871618549038E+07 Z =-2.158546729167923E+03
2461132.832320602 = A.D. 2026-Apr-02 07:58:32.5000 TDB 
 X =-1.461551562211714E+08 Y =-3.172881203669427E+07 Z =-2.569977402258664E+03
2461132.873987269 = A.D. 2026-Apr-02 08:58:32.5000 TDB 
 X =-1.461320276516325E+08 Y =-3.183792408322921E+07 Z =-2.897215363942087E+03
2461132.915653935 = A.D. 2026-Apr-02 09:58:32.5000 TDB 
 X =-1.461084725969615E+08 Y =-3.194610882024452E+07 Z =-3.145115343263373E+03
2461132.957320602 = A.D. 2026-Apr-02 10:58:32.5000 TDB 
 X =-1.460845403211972E+08 Y =-3.205339311811052E+07 Z =-3.312858591813594E+03
2461132.998987269 = A.D. 2026-Apr-02 11:58:32.5000 TDB 
 X =-1.460602978767115E+08 Y =-3.215980967489363E+07 Z =-3.410202831670642E+03
2461133.040653935 = A.D. 2026-Apr-02 12:58:32.5000 TDB 
 X =-1.460357597242067E+08 Y =-3.226535241177522E+07 Z =-3.423392200833187E+03
2461133.082320602 = A.D. 2026-Apr-02 13:58:32.5000 TDB 
 X =-1.460109744041971E+08 Y =-3.237000834764533E+07 Z =-3.359300999103114E+03
2461133.123987269 = A.D. 2026-Apr-02 14:58:32.5000 TDB 
 X =-1.459859802725078E+08 Y =-3.247374766899461E+07 Z =-3.217719153258950E+03
2461133.165653935 = A.D. 2026-Apr-02 15:58:32.5000 TDB 
 X =-1.459608138959084E+08 Y =-3.257652095379294E+07 Z =-2.994638220233843E+03
2461133.207320602 = A.D. 2026-Apr-02 16:58:32.5000 TDB 
 X =-1.459355174750298E+08 Y =-3.267825388949418E+07 Z =-2.683957850219682E+03
2461133.248987269 = A.D. 2026-Apr-02 17:58:32.5000 TDB 
 X =-1.459101449456095E+08 Y =-3.277883749947281E+07 Z =-2.276685884786770E+03
2461133.290653935 = A.D. 2026-Apr-02 18:58:32.5000 TDB 
 X =-1.458847739817934E+08 Y =-3.287811085160122E+07 Z =-1.757400535168126E+03
2461133.332320602 = A.D. 2026-Apr-02 19:58:32.5000 TDB 
 X =-1.458595260877732E+08 Y =-3.297582539145862E+07 Z =-1.110059153156355E+03
2461133.373987269 = A.D. 2026-Apr-02 20:58:32.5000 TDB 
 X =-1.458346308675777E+08 Y =-3.307157329585890E+07 Z =-2.988712537605315E+02
2461133.415653935 = A.D. 2026-Apr-02 21:58:32.5000 TDB 
 X =-1.458106096176430E+08 Y =-3.316459770622864E+07 Z = 7.376104764956981E+02
2461133.457320602 = A.D. 2026-Apr-02 22:58:32.5000 TDB 
 X =-1.457892098973860E+08 Y =-3.325317132983094E+07 Z = 2.137238643636927E+03
2461133.498987269 = A.D. 2026-Apr-02 23:58:32.5000 TDB 
 X =-1.457853487888741E+08 Y =-3.333910674420204E+07 Z = 3.625075213823467E+03
2461133.540653935 = A.D. 2026-Apr-03 00:58:32.5000 TDB 
 X =-1.457839482557214E+08 Y =-3.345842983672078E+07 Z = 2.026688676346093E+03
2461133.582320602 = A.D. 2026-Apr-03 01:58:32.5000 TDB 
 X =-1.457717833518054E+08 Y =-3.357704268894754E+07 Z = 6.767521554678679E+02
2461133.623987269 = A.D. 2026-Apr-03 02:58:32.5000 TDB 
 X =-1.457566371926522E+08 Y =-3.369392567052473E+07 Z =-4.744906976763159E+02
2461133.665653935 = A.D. 2026-Apr-03 03:58:32.5000 TDB 
 X =-1.457399597505425E+08 Y =-3.380963377150646E+07 Z =-1.500476235788316E+03
2461133.707320602 = A.D. 2026-Apr-03 04:58:32.5000 TDB 
 X =-1.457223008236539E+08 Y =-3.392447717450248E+07 Z =-2.437613519670442E+03
2461133.748987269 = A.D. 2026-Apr-03 05:58:32.5000 TDB 
 X =-1.457039355703877E+08 Y =-3.403864419626630E+07 Z =-3.306965504851192E+03
2461133.790653935 = A.D. 2026-Apr-03 06:58:32.5000 TDB 
 X =-1.456850241001559E+08 Y =-3.415225916164315E+07 Z =-4.122055913202465E+03
2461133.832320602 = A.D. 2026-Apr-03 07:58:32.5000 TDB 
 X =-1.456656689629543E+08 Y =-3.426540943619423E+07 Z =-4.892212277825922E+03
2461133.873987269 = A.D. 2026-Apr-03 08:58:32.5000 TDB 
 X =-1.456459403828475E+08 Y =-3.437815935515361E+07 Z =-5.624210387699306E+03
2461133.915653935 = A.D. 2026-Apr-03 09:58:32.5000 TDB 
 X =-1.456258888808366E+08 Y =-3.449055803484431E+07 Z =-6.323169303214177E+03
2461133.957320602 = A.D. 2026-Apr-03 10:58:32.5000 TDB 
 X =-1.456055522104001E+08 Y =-3.460264405933158E+07 Z =-6.993076992405578E+03
2461133.998987269 = A.D. 2026-Apr-03 11:58:32.5000 TDB 
 X =-1.455849594482211E+08 Y =-3.471444844841307E+07 Z =-7.637117845114321E+03
2461134.040653935 = A.D. 2026-Apr-03 12:58:32.5000 TDB 
 X =-1.455641335450279E+08 Y =-3.482599662163221E+07 Z =-8.257886622011662E+03
2461134.082320602 = A.D. 2026-Apr-03 13:58:32.5000 TDB 
 X =-1.455430929892403E+08 Y =-3.493730974601930E+07 Z =-8.857533726451918E+03
2461134.123987269 = A.D. 2026-Apr-03 14:58:32.5000 TDB 
 X =-1.455218529329124E+08 Y =-3.504840568958679E+07 Z =-9.437867073085159E+03
2461134.165653935 = A.D. 2026-Apr-03 15:58:32.5000 TDB 
 X =-1.455004250860932E+08 Y =-3.515930046209672E+07 Z =-9.999695300223306E+03
2461134.207320602 = A.D. 2026-Apr-03 16:58:32.5000 TDB 
 X =-1.454788217656054E+08 Y =-3.527000574459035E+07 Z =-1.054567477983609E+04
2461134.248987269 = A.D. 2026-Apr-03 17:58:32.5000 TDB 
 X =-1.454570510991585E+08 Y =-3.538053374987333E+07 Z =-1.107643406994268E+04
2461134.290653935 = A.D. 2026-Apr-03 18:58:32.5000 TDB 
 X =-1.454351210674067E+08 Y =-3.549089449007995E+07 Z =-1.159280766309053E+04
2461134.332320602 = A.D. 2026-Apr-03 19:58:32.5000 TDB 
 X =-1.454130383202127E+08 Y =-3.560109689673088E+07 Z =-1.209577569619566E+04
2461134.373987269 = A.D. 2026-Apr-03 20:58:32.5000 TDB 
 X =-1.453908087594524E+08 Y =-3.571114887869951E+07 Z =-1.258612687902525E+04
2461134.415653935 = A.D. 2026-Apr-03 21:58:32.5000 TDB 
 X =-1.453684375828505E+08 Y =-3.582105750945981E+07 Z =-1.306456570852175E+04
2461134.457320602 = A.D. 2026-Apr-03 22:58:32.5000 TDB 
 X =-1.453459293974709E+08 Y =-3.593082914846162E+07 Z =-1.353172490845621E+04
2461134.498987269 = A.D. 2026-Apr-03 23:58:32.5000 TDB 
 X =-1.453232883106956E+08 Y =-3.604046954001565E+07 Z =-1.398817553800344E+04
2461134.540653935 = A.D. 2026-Apr-04 00:58:32.5000 TDB 
 X =-1.453005180040177E+08 Y =-3.614998389499674E+07 Z =-1.443443531980552E+04
2461134.582320602 = A.D. 2026-Apr-04 01:58:32.5000 TDB 
 X =-1.452776217934571E+08 Y =-3.625937695890711E+07 Z =-1.487097555927932E+04
2461134.623987269 = A.D. 2026-Apr-04 02:58:32.5000 TDB 
 X =-1.452546026794491E+08 Y =-3.636865306900528E+07 Z =-1.529822693814151E+04
2461134.665653935 = A.D. 2026-Apr-04 03:58:32.5000 TDB 
 X =-1.452314633883657E+08 Y =-3.647781620259105E+07 Z =-1.571658440004103E+04
2461134.707320602 = A.D. 2026-Apr-04 04:58:32.5000 TDB 
 X =-1.452082064073281E+08 Y =-3.658687001807782E+07 Z =-1.612641129783168E+04
2461134.748987269 = A.D. 2026-Apr-04 05:58:32.5000 TDB 
 X =-1.451848340135892E+08 Y =-3.669581789013797E+07 Z =-1.652804293564521E+04
2461134.790653935 = A.D. 2026-Apr-04 06:58:32.5000 TDB 
 X =-1.451613482994950E+08 Y =-3.680466293994284E+07 Z =-1.692178961140849E+04
2461134.832320602 = A.D. 2026-Apr-04 07:58:32.5000 TDB 
 X =-1.451377511938122E+08 Y =-3.691340806131624E+07 Z =-1.730793924410082E+04
2461134.873987269 = A.D. 2026-Apr-04 08:58:32.5000 TDB 
 X =-1.451140444800562E+08 Y =-3.702205594346248E+07 Z =-1.768675965389796E+04
2461134.915653935 = A.D. 2026-Apr-04 09:58:32.5000 TDB 
 X =-1.450902272992026E+08 Y =-3.713060490480026E+07 Z =-1.805828725529462E+04
2461134.957320602 = A.D. 2026-Apr-04 10:58:32.5000 TDB 
 X =-1.450663059717652E+08 Y =-3.723906528166627E+07 Z =-1.842325218951143E+04
2461134.998987269 = A.D. 2026-Apr-04 11:58:32.5000 TDB 
 X =-1.450422796622897E+08 Y =-3.734743544273673E+07 Z =-1.878158907834254E+04
2461135.040653935 = A.D. 2026-Apr-04 12:58:32.5000 TDB 
 X =-1.450181488088811E+08 Y =-3.745571792790438E+07 Z =-1.913337910085917E+04
2461135.082320602 = A.D. 2026-Apr-04 13:58:32.5000 TDB 
 X =-1.449939163726707E+08 Y =-3.756391375730674E+07 Z =-1.947903291168436E+04
2461135.123987269 = A.D. 2026-Apr-04 14:58:32.5000 TDB 
 X =-1.449695827422849E+08 Y =-3.767202514248431E+07 Z =-1.981864933171496E+04
2461135.165653935 = A.D. 2026-Apr-04 15:58:32.5000 TDB 
 X =-1.449451490114979E+08 Y =-3.778005379242893E+07 Z =-2.015240032790974E+04
